start=new Date('2022-04-19T00:00:00.000Z').valueOf();
sats=[{"INCLINATION":"53.0568","BSTAR":"-0.00347510000000","APOAPSIS":"548.227","FILE":"3407402","MEAN_ANOMALY":"272.3156","REF_FRAME":"TEME","PERIAPSIS":"545.918","TLE_LINE2":"2 48431  53.0568  49.7121 0001667  72.1965 272.3156 15.06446142  3599","RCS_SIZE":"LARGE","MEAN_ELEMENT_THEORY":"SGP4","OBJECT_ID":"2021-040D","PERIOD":"95.589","ECCENTRICITY":"0.00016670","RA_OF_ASC_NODE":"49.7121","NORAD_CAT_ID":"48431","SITE":"AFETR","LAUNCH_DATE":"2021-05-09","EPHEMERIS_TYPE":"0","SEMIMAJOR_AXIS":"6925.207","TIME_SYSTEM":"UTC","CLASSIFICATION_TYPE":"U","GP_ID":"201580464","OBJECT_NAME":"STARLINK-2700","EPOCH":"2022-04-18T22:00:00.999936","CENTER_NAME":"EARTH","DECAY_DATE":null,"MEAN_MOTION_DOT":"-0.00051733","OBJECT_TYPE":"PAYLOAD","TLE_LINE1":"1 48431U 21040D   22108.91667824 -.00051733  00000-0 -34751-2 0  9996","COUNTRY_CODE":"US","ELEMENT_SET_NO":"999","REV_AT_EPOCH":"359","ARG_OF_PERICENTER":"72.1965","MEAN_MOTION":"15.06446142","MEAN_MOTION_DDOT":"0.0000000000000"},{"FILE":"3407402","MEAN_ANOMALY":"208.8548","BSTAR":"-0.00094627000000","APOAPSIS":"548.192","INCLINATION":"53.0549","MEAN_ELEMENT_THEORY":"SGP4","OBJECT_ID":"2021-040E","PERIOD":"95.592","REF_FRAME":"TEME","PERIAPSIS":"546.201","RCS_SIZE":"LARGE","TLE_LINE2":"2 48432  53.0549  44.7268 0001437  83.2540 208.8548 15.06405545  3594","LAUNCH_DATE":"2021-05-09","EPHEMERIS_TYPE":"0","GP_ID":"201580715","OBJECT_NAME":"STARLINK-2680","SEMIMAJOR_AXIS":"6925.332","TIME_SYSTEM":"UTC","CLASSIFICATION_TYPE":"U","ECCENTRICITY":"0.00014370","NORAD_CAT_ID":"48432","SITE":"AFETR","RA_OF_ASC_NODE":"44.7268","REV_AT_EPOCH":"359","ARG_OF_PERICENTER":"83.2540","COUNTRY_CODE":"US","ELEMENT_SET_NO":"999","MEAN_MOTION":"15.06405545","MEAN_MOTION_DDOT":"0.0000000000000","DECAY_DATE":null,"CENTER_NAME":"EARTH","EPOCH":"2022-04-18T22:00:00.999936","OBJECT_TYPE":"PAYLOAD","TLE_LINE1":"1 48432U 21040E   22108.91667824 -.00014350  00000-0 -94627-3 0  9990","MEAN_MOTION_DOT":"-0.00014350"},{"TLE_LINE2":"2 48433  53.0563  49.7161 0001476  85.1637  79.3383 15.06437720  3597","RCS_SIZE":"LARGE","PERIAPSIS":"546.076","REF_FRAME":"TEME","PERIOD":"95.590","OBJECT_ID":"2021-040F","MEAN_ELEMENT_THEORY":"SGP4","INCLINATION":"53.0563","APOAPSIS":"548.120","BSTAR":"-0.00241260000000","MEAN_ANOMALY":"79.3383","FILE":"3407402","MEAN_MOTION_DOT":"-0.00036072","TLE_LINE1":"1 48433U 21040F   22108.91667824 -.00036072  00000-0 -24126-2 0  9992","OBJECT_TYPE":"PAYLOAD","EPOCH":"2022-04-18T22:00:00.999936","CENTER_NAME":"EARTH","DECAY_DATE":null,"MEAN_MOTION_DDOT":"0.0000000000000","MEAN_MOTION":"15.06437720","ELEMENT_SET_NO":"999","COUNTRY_CODE":"US","ARG_OF_PERICENTER":"85.1637","REV_AT_EPOCH":"359","RA_OF_ASC_NODE":"49.7161","SITE":"AFETR","NORAD_CAT_ID":"48433","ECCENTRICITY":"0.00014760","TIME_SYSTEM":"UTC","CLASSIFICATION_TYPE":"U","SEMIMAJOR_AXIS":"6925.233","OBJECT_NAME":"STARLINK-2699","GP_ID":"201579463","EPHEMERIS_TYPE":"0","LAUNCH_DATE":"2021-05-09"},{"LAUNCH_DATE":"2021-05-09","EPHEMERIS_TYPE":"0","GP_ID":"201579713","OBJECT_NAME":"STARLINK-2692","SEMIMAJOR_AXIS":"6925.287","TIME_SYSTEM":"UTC","CLASSIFICATION_TYPE":"U","ECCENTRICITY":"0.00014990","NORAD_CAT_ID":"48434","SITE":"AFETR","RA_OF_ASC_NODE":"54.7219","REV_AT_EPOCH":"360","ARG_OF_PERICENTER":"80.7183","COUNTRY_CODE":"US","ELEMENT_SET_NO":"999","MEAN_MOTION":"15.06420093","MEAN_MOTION_DDOT":"0.0000000000000","DECAY_DATE":null,"EPOCH":"2022-04-18T22:00:00.999936","CENTER_NAME":"EARTH","OBJECT_TYPE":"PAYLOAD","TLE_LINE1":"1 48434U 21040G   22108.91667824 -.00029729  00000-0 -19842-2 0  9993","MEAN_MOTION_DOT":"-0.00029729","FILE":"3407402","MEAN_ANOMALY":"36.3625","BSTAR":"-0.00198420000000","APOAPSIS":"548.190","INCLINATION":"53.0550","MEAN_ELEMENT_THEORY":"SGP4","OBJECT_ID":"2021-040G","PERIOD":"95.591","REF_FRAME":"TEME","PERIAPSIS":"546.114","RCS_SIZE":"LARGE","TLE_LINE2":"2 48434  53.0550  54.7219 0001499  80.7183  36.3625 15.06420093  3605"},{"MEAN_MOTION_DDOT":"0.0000000000000","MEAN_MOTION":"15.06403926","ELEMENT_SET_NO":"999","COUNTRY_CODE":"US","ARG_OF_PERICENTER":"53.7171","REV_AT_EPOCH":"5267","MEAN_MOTION_DOT":"0.00001865","TLE_LINE1":"1 48435U 21040H   22108.81678599  .00001865  00000-0  14403-3 0  9992","OBJECT_TYPE":"PAYLOAD","CENTER_NAME":"EARTH","EPOCH":"2022-04-18T19:36:10.309536","DECAY_DATE":null,"CLASSIFICATION_TYPE":"U","TIME_SYSTEM":"UTC","SEMIMAJOR_AXIS":"6925.337","OBJECT_NAME":"STARLINK-2633","GP_ID":"201579964","EPHEMERIS_TYPE":"0","LAUNCH_DATE":"2021-05-09","RA_OF_ASC_NODE":"65.1522","SITE":"AFETR","NORAD_CAT_ID":"48435","ECCENTRICITY":"0.00018830","PERIOD":"95.592","OBJECT_ID":"2021-040H","MEAN_ELEMENT_THEORY":"SGP4","TLE_LINE2":"2 48435  53.0560  65.1522 0001883  53.7171 306.3992 15.06403926 52678","RCS_SIZE":"LARGE","PERIAPSIS":"545.897","REF_FRAME":"TEME","MEAN_ANOMALY":"306.3992","FILE":"3407402","INCLINATION":"53.0560","APOAPSIS":"548.506","BSTAR":"0.00014403000000"},{"PERIAPSIS":"546.027","REF_FRAME":"TEME","RCS_SIZE":"LARGE","TLE_LINE2":"2 48436  53.0554  80.2015 0001739  54.7572 305.3580 15.06394092 52465","MEAN_ELEMENT_THEORY":"SGP4","PERIOD":"95.593","OBJECT_ID":"2021-040J","APOAPSIS":"548.436","BSTAR":"0.00021052000000","INCLINATION":"53.0554","FILE":"3407402","MEAN_ANOMALY":"305.3580","DECAY_DATE":null,"CENTER_NAME":"EARTH","EPOCH":"2022-04-18T19:22:16.807872","TLE_LINE1":"1 48436U 21040J   22108.80713898  .00002855  00000-0  21052-3 0  9992","OBJECT_TYPE":"PAYLOAD","MEAN_MOTION_DOT":"0.00002855","ARG_OF_PERICENTER":"54.7572","REV_AT_EPOCH":"5246","ELEMENT_SET_NO":"999","COUNTRY_CODE":"US","MEAN_MOTION_DDOT":"0.0000000000000","MEAN_MOTION":"15.06394092","ECCENTRICITY":"0.00017390","SITE":"AFETR","NORAD_CAT_ID":"48436","RA_OF_ASC_NODE":"80.2015","EPHEMERIS_TYPE":"0","LAUNCH_DATE":"2021-05-09","OBJECT_NAME":"STARLINK-2639","GP_ID":"201580215","TIME_SYSTEM":"UTC","CLASSIFICATION_TYPE":"U","SEMIMAJOR_AXIS":"6925.367"},{"INCLINATION":"53.0523","APOAPSIS":"548.630","BSTAR":"0.00020510000000","MEAN_ANOMALY":"308.6364","FILE":"3407402","TLE_LINE2":"2 48437  53.0523  90.8684 0002025  51.4807 308.6364 15.06395448 52300","RCS_SIZE":"LARGE","PERIAPSIS":"545.825","REF_FRAME":"TEME","PERIOD":"95.592","OBJECT_ID":"2021-040K","MEAN_ELEMENT_THEORY":"SGP4","RA_OF_ASC_NODE":"90.8684","SITE":"AFETR","NORAD_CAT_ID":"48437","ECCENTRICITY":"0.00020250","TIME_SYSTEM":"UTC","CLASSIFICATION_TYPE":"U","SEMIMAJOR_AXIS":"6925.363","OBJECT_NAME":"STARLINK-2642","GP_ID":"201578963","EPHEMERIS_TYPE":"0","LAUNCH_DATE":"2021-05-09","MEAN_MOTION_DOT":"0.00002774","TLE_LINE1":"1 48437U 21040K   22108.65878376  .00002774  00000-0  20510-3 0  9997","OBJECT_TYPE":"PAYLOAD","CENTER_NAME":"EARTH","EPOCH":"2022-04-18T15:48:38.916864","DECAY_DATE":null,"MEAN_MOTION_DDOT":"0.0000000000000","MEAN_MOTION":"15.06395448","ELEMENT_SET_NO":"999","COUNTRY_CODE":"US","ARG_OF_PERICENTER":"51.4807","REV_AT_EPOCH":"5230"},{"SEMIMAJOR_AXIS":"6925.347","CLASSIFICATION_TYPE":"U","TIME_SYSTEM":"UTC","GP_ID":"201545762","OBJECT_NAME":"STARLINK-2640","LAUNCH_DATE":"2021-05-09","EPHEMERIS_TYPE":"0","RA_OF_ASC_NODE":"82.0137","NORAD_CAT_ID":"48438","SITE":"AFETR","ECCENTRICITY":"0.00021680","MEAN_MOTION":"15.06400458","MEAN_MOTION_DDOT":"0.0000000000000","COUNTRY_CODE":"US","ELEMENT_SET_NO":"999","REV_AT_EPOCH":"5240","ARG_OF_PERICENTER":"41.0890","MEAN_MOTION_DOT":"0.00000903","OBJECT_TYPE":"PAYLOAD","TLE_LINE1":"1 48438U 21040L   22108.40536826  .00000903  00000-0  79498-4 0  9994","CENTER_NAME":"EARTH","EPOCH":"2022-04-18T09:43:43.817664","DECAY_DATE":null,"MEAN_ANOMALY":"319.0262","FILE":"3406909","INCLINATION":"53.0542","BSTAR":"0.00007949800000","APOAPSIS":"548.714","OBJECT_ID":"2021-040L","PERIOD":"95.592","MEAN_ELEMENT_THEORY":"SGP4","TLE_LINE2":"2 48438  53.0542  82.0137 0002168  41.0890 319.0262 15.06400458 52405","RCS_SIZE":"LARGE","REF_FRAME":"TEME","PERIAPSIS":"545.711"},{"GP_ID":"201545013","OBJECT_NAME":"STARLINK-2583","SEMIMAJOR_AXIS":"6925.349","TIME_SYSTEM":"UTC","CLASSIFICATION_TYPE":"U","LAUNCH_DATE":"2021-05-09","EPHEMERIS_TYPE":"0","NORAD_CAT_ID":"48439","SITE":"AFETR","RA_OF_ASC_NODE":"82.0382","ECCENTRICITY":"0.00016660","MEAN_MOTION":"15.06399726","MEAN_MOTION_DDOT":"0.0000000000000","REV_AT_EPOCH":"5240","ARG_OF_PERICENTER":"60.5352","COUNTRY_CODE":"US","ELEMENT_SET_NO":"999","OBJECT_TYPE":"PAYLOAD","TLE_LINE1":"1 48439U 21040M   22108.40169784  .00004634  00000-0  32982-3 0  9991","MEAN_MOTION_DOT":"0.00004634","DECAY_DATE":null,"CENTER_NAME":"EARTH","EPOCH":"2022-04-18T09:38:26.693376","MEAN_ANOMALY":"299.5803","FILE":"3406909","BSTAR":"0.00032982000000","APOAPSIS":"548.368","INCLINATION":"53.0546","OBJECT_ID":"2021-040M","PERIOD":"95.592","MEAN_ELEMENT_THEORY":"SGP4","RCS_SIZE":"LARGE","TLE_LINE2":"2 48439  53.0546  82.0382 0001666  60.5352 299.5803 15.06399726 52401","REF_FRAME":"TEME","PERIAPSIS":"546.061"},{"OBJECT_ID":"2021-040N","PERIOD":"95.592","MEAN_ELEMENT_THEORY":"SGP4","RCS_SIZE":"LARGE","TLE_LINE2":"2 48440  53.0556  82.0545 0002007  53.2037 306.9136 15.06401707 52858","REF_FRAME":"TEME","PERIAPSIS":"545.818","MEAN_ANOMALY":"306.9136","FILE":"3407005","BSTAR":"0.00004392000000","APOAPSIS":"548.598","INCLINATION":"53.0556","MEAN_MOTION":"15.06401707","MEAN_MOTION_DDOT":"0.0000000000000","REV_AT_EPOCH":"5285","ARG_OF_PERICENTER":"53.2037","COUNTRY_CODE":"US","ELEMENT_SET_NO":"999","OBJECT_TYPE":"PAYLOAD","TLE_LINE1":"1 48440U 21040N   22108.39800268  .00000373  00000-0  43920-4 0  9991","MEAN_MOTION_DOT":"0.00000373","DECAY_DATE":null,"CENTER_NAME":"EARTH","EPOCH":"2022-04-18T09:33:07.431552","GP_ID":"201549168","OBJECT_NAME":"STARLINK-2682","SEMIMAJOR_AXIS":"6925.343","TIME_SYSTEM":"UTC","CLASSIFICATION_TYPE":"U","LAUNCH_DATE":"2021-05-09","EPHEMERIS_TYPE":"0","NORAD_CAT_ID":"48440","SITE":"AFETR","RA_OF_ASC_NODE":"82.0545","ECCENTRICITY":"0.00020070"}];
